NORAD_CAT_ID,OBJECT_NAME,OBJECT_TYPE,EPOCH,MEAN_MOTION,ECCENTRICITY,INCLINATION,RA_OF_ASC_NODE,ARG_OF_PERICENTER,MEAN_ANOMALY,BSTAR,MEAN_MOTION_DOT,MEAN_MOTION_DDOT,TLE_LINE0,TLE_LINE1,TLE_LINE2,SEMIMAJOR_AXIS,PERIOD,APOGEE,PERIGEE,DECAYED
52996.0,STARLINK-4295,PAYLOAD,2023-01-21 17:22:59,15.08848951,0.0002266,53.2149,185.1018,79.62,280.5047,0.00014322,1.992e-05,0.0,0 STARLINK-4295,1 52996U 22076L   23021.72430248  .00001992  00000-0  14322-3 0  9992,2 52996  53.2149 185.1018 0002266  79.6200 280.5047 15.08848951 30762,6917.853,95.437,541.286,538.15,0.0
52996.0,STARLINK-4295,PAYLOAD,2023-01-22 09:16:51,15.08838161,0.0002177999999999,53.2152,182.1286,79.7258,280.3979,2.845e-05,1.65e-06,0.0,0 STARLINK-4295,1 52996U 22076L   23022.38671188  .00000165  00000-0  28450-4 0  9994,2 52996  53.2152 182.1286 0002178  79.7258 280.3979 15.08838161 30861,6917.886,95.438,541.258,538.244,0.0
52996.0,STARLINK-4295,PAYLOAD,2023-01-23 10:43:02,15.08835097,0.0002168,53.2148,177.3682,86.3563,273.7677,5.6822e-08,-2.87e-06,0.0,0 STARLINK-4295,1 52996U 22076L   23023.44655594 -.00000287  00000-0  56822-7 0  9998,2 52996  53.2148 177.3682 0002168  86.3563 273.7677 15.08835097 31029,6917.895,95.438,541.26,538.261,0.0
52996.0,STARLINK-4295,PAYLOAD,2023-01-23 18:39:57,15.08847681,0.0002244,53.2153,175.8829,85.8919,274.233,3.6476e-05,2.92e-06,0.0,0 STARLINK-4295,1 52996U 22076L   23023.77774709  .00000292  00000-0  36476-4 0  9999,2 52996  53.2153 175.8829 0002244  85.8919 274.2330 15.08847681 31074,6917.857,95.437,541.274,538.17,0.0
52996.0,STARLINK-4295,PAYLOAD,2023-01-24 08:58:26,15.08832731,0.000237,53.2149,173.207,89.1978,270.9286,6.9183e-05,8.13e-06,0.0,0 STARLINK-4295,1 52996U 22076L   23024.37391676  .00000813  00000-0  69183-4 0  9994,2 52996  53.2149 173.2070 0002370  89.1978 270.9286 15.08832731 31164,6917.903,95.438,541.4069999999999,538.128,0.0
52996.0,STARLINK-4295,PAYLOAD,2023-01-25 02:27:41,15.08829222,0.0002056999999999,53.2156,169.9351,91.5808,268.54200000000003,3.1186e-05,2.08e-06,0.0,0 STARLINK-4295,1 52996U 22076L   23025.10256246  .00000208  00000-0  31186-4 0  9999,2 52996  53.2156 169.9351 0002057  91.5808 268.5420 15.08829222 31273,6917.9130000000005,95.438,541.201,538.355,0.0
52996.0,STARLINK-4295,PAYLOAD,2023-01-25 13:35:23,15.08831195,0.0002174999999999,53.2156,167.8535,92.5319,267.5922,-4.4637e-05,-9.98e-06,0.0,0 STARLINK-4295,1 52996U 22076L   23025.56624682 -.00000998  00000-0 -44637-4 0  9995,2 52996  53.2156 167.8535 0002175  92.5319 267.5922 15.08831195 30876,6917.906999999999,95.438,541.2769999999999,538.268,0.0
52996.0,STARLINK-4295,PAYLOAD,2023-01-25 16:46:09,15.08840911,0.0002039,53.2144,167.2598,104.5464,255.5755,4.2034e-05,3.81e-06,0.0,0 STARLINK-4295,1 52996U 22076L   23025.69871778  .00000381  00000-0  42034-4 0  9992,2 52996  53.2144 167.2598 0002039 104.5464 255.5755 15.08840911 31362,6917.878000000001,95.437,541.153,538.332,0.0
52996.0,STARLINK-4295,PAYLOAD,2023-01-26 13:26:09,15.08846203,0.0002049,53.2167,163.3932,96.2769,263.8457,0.0001257,1.713e-05,0.0,0 STARLINK-4295,1 52996U 22076L   23026.55983416  .00001713  00000-0  12570-3 0  9992,2 52996  53.2167 163.3932 0002049  96.2769 263.8457 15.08846203 31026,6917.861,95.437,541.144,538.309,0.0
52996.0,STARLINK-4295,PAYLOAD,2023-01-26 16:36:55,15.0885277,0.0001998,53.2167,162.7969,92.5021,267.62,0.00015205,2.133e-05,0.0,0 STARLINK-4295,1 52996U 22076L   23026.69230959  .00002133  00000-0  15205-3 0  9999,2 52996  53.2167 162.7969 0001998  92.5021 267.6200 15.08852770 31519,6917.840999999999,95.437,541.089,538.3240000000001,0.0
52996.0,STARLINK-4295,PAYLOAD,2023-01-27 08:30:47,15.0883585,0.0001766999999999,53.2165,159.8236,102.9109,257.2081,0.00015399,2.163e-05,0.0,0 STARLINK-4295,1 52996U 22076L   23027.35471806  .00002163  00000-0  15399-3 0  9998,2 52996  53.2165 159.8236 0001767 102.9109 257.2081 15.08835850 31611,6917.893,95.438,540.98,538.536,0.0
52996.0,STARLINK-4295,PAYLOAD,2023-01-27 13:16:57,15.08839005,0.0001989,53.2161,158.9329,96.7152,263.4066,0.00014713,2.054e-05,0.0,0 STARLINK-4295,1 52996U 22076L   23027.55343768  .00002054  00000-0  14713-3 0  9993,2 52996  53.2161 158.9329 0001989  96.7152 263.4066 15.08839005 31173,6917.883000000001,95.438,541.124,538.372,0.0
52996.0,STARLINK-4295,PAYLOAD,2023-01-27 14:52:19,15.0884434,0.0001783,53.2162,158.6347,103.7682,256.3509,8.2561e-05,1.026e-05,0.0,0 STARLINK-4295,1 52996U 22076L   23027.61967547  .00001026  00000-0  82561-4 0  9992,2 52996  53.2162 158.6347 0001783 103.7682 256.3509 15.08844340 31182,6917.866999999999,95.437,540.966,538.499,0.0
52996.0,STARLINK-4295,PAYLOAD,2023-01-28 11:32:20,15.08843651,0.0001861,53.2158,154.7702,98.5016,261.6188,3.5294e-06,-2.32e-06,0.0,0 STARLINK-4295,1 52996U 22076L   23028.48079646 -.00000232  00000-0  35294-5 0  9993,2 52996  53.2158 154.7702 0001861  98.5016 261.6188 15.08843651 31780,6917.869,95.437,541.022,538.447,0.0
52996.0,STARLINK-4295,PAYLOAD,2023-01-28 13:07:43,15.08843538,0.0001811,53.2159,154.4728,98.8168,261.303,4.2656e-06,-2.2e-06,0.0,0 STARLINK-4295,1 52996U 22076L   23028.54703606 -.00000220  00000-0  42656-5 0  9997,2 52996  53.2159 154.4728 0001811  98.8168 261.3030 15.08843538 31329,6917.87,95.437,540.987,538.482,0.0
52996.0,STARLINK-4295,PAYLOAD,2023-01-28 16:18:29,15.08850927,0.0001828,53.2156,153.8773,108.4252,251.6939,-4.9274e-05,-1.073e-05,0.0,0 STARLINK-4295,1 52996U 22076L   23028.67951215 -.00001073  00000-0 -49274-4 0  9992,2 52996  53.2156 153.8773 0001828 108.4252 251.6939 15.08850927 31341,6917.847,95.437,540.977,538.447,0.0
52996.0,STARLINK-4295,PAYLOAD,2023-01-29 11:23:08,15.08836962,0.0001714,53.2142,150.3088,90.1121,270.0068,-5.6935e-06,-3.79e-06,0.0,0 STARLINK-4295,1 52996U 22076L   23029.47440008 -.00000379  00000-0 -56935-5 0  9995,2 52996  53.2142 150.3088 0001714  90.1121 270.0068 15.08836962 31939,6917.89,95.438,540.94,538.569,0.0
52996.0,STARLINK-4295,PAYLOAD,2023-01-29 14:33:54,15.08835273,0.0001709,53.216,149.715,98.6447,261.4739,6.1524e-06,-1.9e-06,0.0,0 STARLINK-4295,1 52996U 22076L   23029.60688064 -.00000190  00000-0  61524-5 0  9996,2 52996  53.2160 149.7150 0001709  98.6447 261.4739 15.08835273 31482,6917.895,95.438,540.942,538.578,0.0
52996.0,STARLINK-4295,PAYLOAD,2023-01-30 11:13:55,15.08837049,0.0001693,53.2159,145.8487,102.552,257.5662,3.5516e-05,2.77e-06,0.0,0 STARLINK-4295,1 52996U 22076L   23030.46800065  .00000277  00000-0  35516-4 0  9995,2 52996  53.2159 145.8487 0001693 102.5520 257.5662 15.08837049 31618,6917.889,95.438,540.926,538.583,0.0
52996.0,STARLINK-4295,PAYLOAD,2023-01-30 23:57:00,15.08840641,0.0001533,53.2161,143.4712,97.2873,262.8293,-1.8034e-05,-5.75e-06,0.0,0 STARLINK-4295,1 52996U 22076L   23030.99792069 -.00000575  00000-0 -18034-4 0  9996,2 52996  53.2161 143.4712 0001533  97.2873 262.8293 15.08840641 32162,6917.878,95.438,540.804,538.683,0.0
52996.0,STARLINK-4295,PAYLOAD,2023-01-31 12:40:05,15.08838583,0.0001588,53.2164,141.0918,101.1164,259.0007,8.6857e-05,1.095e-05,0.0,0 STARLINK-4295,1 52996U 22076L   23031.52784021  .00001095  00000-0  86857-4 0  9999,2 52996  53.2164 141.0918 0001588 101.1164 259.0007 15.08838583 31774,6917.885,95.438,540.848,538.651,0.0
52996.0,STARLINK-4295,PAYLOAD,2023-02-01 10:55:29,15.08840485,0.0001621,53.2172,136.929,106.6718,253.4452,4.8581e-05,4.85e-06,0.0,0 STARLINK-4295,1 52996U 22076L   23032.45520056  .00000485  00000-0  48581-4 0  9992,2 52996  53.2172 136.9290 0001621 106.6718 253.4452 15.08840485 32386,6917.879,95.438,540.865,538.623,0.0
52996.0,STARLINK-4295,PAYLOAD,2023-02-01 12:30:52,15.08841588,0.0001641,53.217,136.6315,106.9077,253.2095,5.775e-05,6.31e-06,0.0,0 STARLINK-4295,1 52996U 22076L   23032.52143947  .00000631  00000-0  57750-4 0  9991,2 52996  53.2170 136.6315 0001641 106.9077 253.2095 15.08841588 31927,6917.876,95.437,540.876,538.605,0.0
52996.0,STARLINK-4295,PAYLOAD,2023-02-02 12:21:39,15.08837735,0.0001486,53.2177,132.1715,101.4751,258.6408,-7.4373e-06,-4.06e-06,0.0,0 STARLINK-4295,1 52996U 22076L   23033.51504432 -.00000406  00000-0 -74373-5 0  9994,2 52996  53.2177 132.1715 0001486 101.4751 258.6408 15.08837735 32078,6917.887,95.438,540.78,538.724,0.0
52996.0,STARLINK-4295,PAYLOAD,2023-02-02 15:32:26,15.08838139,0.0001565,53.2176,131.5767,99.4147,260.7022,-3.7212e-06,-3.47e-06,0.0,0 STARLINK-4295,1 52996U 22076L   23033.64752436 -.00000347  00000-0 -37212-5 0  9992,2 52996  53.2176 131.5767 0001565  99.4147 260.7022 15.08838139 32569,6917.886,95.438,540.834,538.668,0.0
52996.0,STARLINK-4295,PAYLOAD,2023-02-03 05:50:54,15.08830707,0.0001408,53.2166,128.9002,104.7207,255.3941,-4.2732e-05,-9.68e-06,0.0,0 STARLINK-4295,1 52996U 22076L   23034.24369143 -.00000968  00000-0 -42732-4 0  9999,2 52996  53.2166 128.9002 0001408 104.7207 255.3941 15.08830707 32656,6917.909,95.438,540.748,538.8,0.0
52996.0,STARLINK-4295,PAYLOAD,2023-02-04 12:03:13,15.08843132,0.0001128,53.2149,123.2488,94.3363,265.7758,9.2928e-05,1.192e-05,0.0,0 STARLINK-4295,1 52996U 22076L   23035.50224295  .00001192  00000-0  92928-4 0  9997,2 52996  53.2149 123.2488 0001128  94.3363 265.7758 15.08843132 32847,6917.871,95.437,540.516,538.955,0.0
52996.0,STARLINK-4295,PAYLOAD,2023-02-05 11:54:01,15.08841393,0.0001166,53.2158,118.7894,104.6814,255.4308,2.7134e-05,1.44e-06,0.0,0 STARLINK-4295,1 52996U 22076L   23036.49584668  .00000144  00000-0  27134-4 0  9992,2 52996  53.2158 118.7894 0001166 104.6814 255.4308 15.08841393 32995,6917.876,95.437,540.548,538.935,0.0
52996.0,STARLINK-4295,PAYLOAD,2023-02-06 10:09:25,15.08831993,0.0001211,53.216,114.6264,99.518,260.5949,0.00022127,3.235e-05,0.0,0 STARLINK-4295,1 52996U 22076L   23037.42320854  .00003235  00000-0  22127-3 0  9991,2 52996  53.2160 114.6264 0001211  99.5180 260.5949 15.08831993 32660,6917.905,95.438,540.608,538.932,0.0
